[{"OBJECT_NAME":"STARLINK-11734 [DTC]","OBJECT_ID":"2025-124N","EPOCH":"2026-03-09T21:46:14.965824","MEAN_MOTION":15.70988591,"ECCENTRICITY":0.00010893,"INCLINATION":42.9989,"RA_OF_ASC_NODE":27.4476,"ARG_OF_PERICENTER":237.669,"MEAN_ANOMALY":122.4072,"EPHEMERIS_TYPE":0,"CLASSIFICATION_TYPE":"U","NORAD_CAT_ID":64329,"ELEMENT_SET_NO":999,"REV_AT_EPOCH":4287,"BSTAR":0.0019661043,"MEAN_MOTION_DOT":0.00261559,"MEAN_MOTION_DDOT":0},{"OBJECT_NAME":"CZ-2D DEB","OBJECT_ID":"2005-024K","EPOCH":"2026-03-07T20:58:14.771712","MEAN_MOTION":15.70813446,"ECCENTRICITY":0.0005756,"INCLINATION":97.1809,"RA_OF_ASC_NODE":100.1703,"ARG_OF_PERICENTER":144.4044,"MEAN_ANOMALY":215.7604,"EPHEMERIS_TYPE":0,"CLASSIFICATION_TYPE":"U","NORAD_CAT_ID":35271,"ELEMENT_SET_NO":999,"REV_AT_EPOCH":8871,"BSTAR":0.00070506615,"MEAN_MOTION_DOT":0.00088213,"MEAN_MOTION_DDOT":0}]
